UNKNOWN                 
1 84236U          26061.09175181  .00000940  00000+0  59819-2 0  9996
2 84236   9.3107 299.7920 6890498 164.3464 238.4347  2.62653933116069
UNKNOWN                 
1 84292U          26066.05783491  .00004250  00000+0  26116-2 0  9990
2 84292  23.8348  43.5049 4553858  83.1965 324.9266  6.22251140233317
UNKNOWN                 
1 84407U          26065.98993335  .00000040  00000+0  11810-1 0  9996
2 84407  19.4486 297.7244 7210526 107.0166 337.4076  2.05796842 77609
UNKNOWN                 
1 84575U          26062.33697389 -.00000072  00000+0  51095-2 0  9994
2 84575  18.0132 131.5702 7115404  71.7416 349.0642  2.19867114 67238
UNKNOWN                 
1 84932U          26066.20595590  .00001110  00000+0  88395-2 0  9998
2 84932   2.0492 193.1045 6576451 152.0769 120.3079  3.00138177134316
UNKNOWN                 
1 85004U          26064.40626589  .00001664  00000+0  52142-3 0  9998
2 85004  98.4334  39.2805 0045519 274.3346 238.2787 14.41342709642802
UNKNOWN                 
1 85010U          26058.09966064  .00000996  00000+0  10809-2 0  9998
2 85010  99.2482 282.6795 0026672  51.5718 101.6401 13.75239596614418
UNKNOWN                 
1 85015U          26065.16557215  .00000724  00000+0  14888-3 0  9994
2 85015  74.0477 238.5458 0014100 126.0519 234.1957 14.62409823654808
UNKNOWN                 
1 85023U          26066.34743207  .00042831  00000+0  56322-2 0  9995
2 85023  99.8383 105.3512 0002579 111.1818 314.2827 14.80023904641325
UNKNOWN                 
1 85027U          26066.21628637  .00000229  00000+0  29336-3 0  9995
2 85027  66.0395 254.6404 0170378 145.1942 216.0409 13.74283918616225
UNKNOWN                 
1 85047U          26065.88538564  .00012078  00000+0  19405-1 0  9997
2 85047 102.1703  53.9790 0107126 191.5163 168.3506 13.46608113587974
UNKNOWN                 
1 85061U          26065.48196630  .00004620  00000+0  18160-1 0  9994
2 85061 102.3995  61.9677 0272237  26.5958 123.8952 12.77662769566476
UNKNOWN                 
1 85100U          26064.70962119  .00000523  00000+0  17157-3 0  9990
2 85100  74.0437  69.3856 0013914 276.2175 202.6613 14.40792056645290
UNKNOWN                 
1 85106U          26066.58989449  .00000818  00000+0  93825-3 0  9992
2 85106 100.0526 176.6220 0010787 155.3520 220.9510 13.73028914614710
UNKNOWN                 
1 85151U          26066.43967755  .00035268  00000+0  43236-2 0  9999
2 85151  98.3991 299.4805 0006537 234.9654 125.0945 14.83007447492067
UNKNOWN                 
1 85210U          26064.89257132  .00000329  00000+0  35085-3 0  9998
2 85210  99.8615 213.1738 0216849 101.9762  49.0334 13.71668276613557
UNKNOWN                 
1 85217U          26064.69888099  .00004105  00000+0  10814-2 0  9993
2 85217  98.0230 158.6754 0206229 237.2697 120.8464 14.37620653639774
